1 37673U 11024A   17156.58132792 +.00000106 +00000-0 +24408-4 0  9990
2 37673 098.0103 164.3892 0000867 112.4829 039.9561 14.72695049321769
1 37673U 11024A   17156.97047286 +.00000107 +00000-0 +24510-4 0  9991
2 37673 098.0103 164.7729 0000875 113.1336 301.1916 14.72695171321823
1 37673U 11024A   17157.53330159 +.00000107 +00000-0 +24597-4 0  9993
2 37673 098.0103 165.3280 0000898 113.9148 042.5612 14.72695349321901
1 37673U 11024A   17158.67943506 +.00000108 +00000-0 +24684-4 0  9993
2 37673 098.0103 166.4582 0000945 116.7097 352.5615 14.72695722322076
1 37673U 11024A   17159.57090149 +.00000096 +00000-0 +22855-4 0  9993
2 37673 098.0103 167.3374 0000972 116.9590 035.7531 14.72695958322208
1 37673U 11024A   17159.96002817 +.00000094 +00000-0 +22561-4 0  9993
2 37673 098.0102 167.7211 0000981 117.2263 297.2766 14.72696068322266
1 37673U 11024A   17160.97459451 +.00000086 +00000-0 +21166-4 0  9997
2 37673 098.0102 168.7216 0001019 118.2711 271.9200 14.72696310322413
1 37673U 11024A   17161.47390255 +.00000082 +00000-0 +20588-4 0  9992
2 37673 098.0103 169.2141 0001038 118.3893 037.3899 14.72696426322528
1 37673U 11024A   17161.67363299 +.00000078 +00000-0 +20038-4 0  9997
2 37673 098.0103 169.4110 0001045 118.3875 015.6652 14.72696449322514
1 37673U 11024A   17162.62032609 +.00000082 +00000-0 +20540-4 0  9994
2 37673 098.0103 170.3446 0001088 119.2065 350.9092 14.72696763322652
1 37673U 11024A   17162.95005062 +.00000085 +00000-0 +21145-4 0  9998
2 37673 098.0103 170.6698 0001096 119.1026 298.0622 14.72696881322707
1 37673U 11024A   17163.57954576 +.00000101 +00000-0 +23510-4 0  9997
2 37673 098.0103 171.2905 0001125 119.5700 032.9822 14.72697180322790
1 37673U 11024A   17163.96410072 +.00000104 +00000-0 +24068-4 0  9990
2 37673 098.0102 171.6698 0001138 119.9136 270.2078 14.72697312322857
1 37673U 11024A   17164.53181743 +.00000105 +00000-0 +24194-4 0  9995
2 37673 098.0103 172.2296 0001158 119.5554 038.6200 14.72697472322930
1 37673U 11024A   17164.92889448 +.00000108 +00000-0 +24617-4 0  9998
2 37673 098.0103 172.6212 0001175 119.9666 342.1266 14.72697579322998
1 37673U 11024A   17165.60991219 +.00000106 +00000-0 +24324-4 0  9997
2 37673 098.0103 173.2928 0001205 120.5347 349.9397 14.72697760323091
1 37673U 11024A   17165.92881440  .00000143  00000-0  22418-4 0  9999
2 37673  98.0112 173.6052 0000495 167.6083 192.5714 14.72696946323306
1 37673U 11024A   17165.93979328 +.00000107 +00000-0 +24492-4 0  9997
2 37673 098.0103 173.6181 0001210 120.2750 298.0788 14.72697858323149
1 37673U 11024A   17166.95345521 +.00000083 +00000-0 +20708-4 0  9991
2 37673 098.0102 174.6177 0001255 120.4216 268.8343 14.72698013323294
1 37673U 11024A   17167.58018160 +.00000092 +00000-0 +22205-4 0  9991
2 37673 098.0103 175.2358 0001288 120.8226 349.1529 14.72698255323381
1 37673U 11024A   17167.91056676 +.00000111 +00000-0 +25137-4 0  9991
2 37673 098.0102 175.5616 0001288 120.2448 300.2819 14.72698441323433
1 37673U 11024A   17168.05121211 +.00000112 +00000-0 +25339-4 0  9990
2 37673 098.0102 175.7003 0001290 120.1867 325.5517 14.72698499323452
1 37673U 11024A   17168.59934296 +.00000108 +00000-0 +24691-4 0  9999
2 37673 098.0103 176.2409 0001315 120.0729 349.9458 14.72698616323537
1 37673U 11024A   17169.61853943 +.00000115 +00000-0 +25736-4 0  9991
2 37673 098.0103 177.2460 0001360 120.0620 350.1873 14.72698981323681
1 37673U 11024A   17169.94820999 +.00000120 +00000-0 +26518-4 0  9997
2 37673 098.0103 177.5711 0001373 120.1311 296.8838 14.72699119323732
1 37673U 11024A   17170.15296757 +.00000123 +00000-0 +27028-4 0  9991
2 37673 098.0103 177.7730 0001385 120.3724 301.5546 14.72699219323762
1 37673U 11024A   17170.57772517 +.00000123 +00000-0 +26996-4 0  9993
2 37673 098.0103 178.1919 0001406 120.3152 032.1984 14.72699383323827
1 37673U 11024A   17170.64290748 +.00000123 +00000-0 +26995-4 0  9991
2 37673 098.0103 178.2562 0001407 120.1320 017.7513 14.72699396323874
